STARLINK-1443           
1 45660U 20035D   23325.13644764 -.00001570  00000+0 -86513-4 0  9992
2 45660  53.0542 235.5205 0001467  81.8221 278.2935 15.06392443191783
STARLINK-1444           
1 45661U 20035E   23325.15461166  .00014345  00000+0  97623-3 0  9993
2 45661  53.0533 235.4362 0001673  90.7492 269.3689 15.06542223191774
STARLINK-1445           
1 45662U 20035F   23325.03693223  .00001721  00000+0  13440-3 0  9991
2 45662  53.0534 235.9682 0001594  84.9400 275.1770 15.06397706191817
STARLINK-1446           
1 45663U 20035G   23325.04061511  .00001271  00000+0  10423-3 0  9990
2 45663  53.0536 235.9478 0001587  85.4217 274.6953 15.06401320191766
STARLINK-1448           
1 45665U 20035J   23325.14013978 -.00002331  00000+0 -13767-3 0  9991
2 45665  53.0531 235.5046 0001595  78.1443 281.9725 15.06386695191786
STARLINK-1449           
1 45666U 20035K   23324.93809453  .00013137  00000+0  88169-3 0  9991
2 45666  53.0543 236.3129 0002183 113.9386 246.1832 15.07130689192154
STARLINK-1450           
1 45667U 20035L   23325.14657597 -.00000590  00000+0 -20701-4 0  9996
2 45667  53.0553 235.5049 0001854 109.8659 250.2530 15.06393083191832
STARLINK-1451           
1 45668U 20035M   23325.04704234  .00001934  00000+0  14872-3 0  9999
2 45668  53.0534 235.9233 0001429  86.1000 274.0152 15.06398742191770
STARLINK-1452           
1 45669U 20035N   23325.16224557  .00003414  00000+0  24801-3 0  9996
2 45669  53.0535 235.4059 0001666  86.7383 273.3797 15.06393491191779
STARLINK-1453           
1 45670U 20035P   23324.88857420  .00001372  00000+0  11100-3 0  9996
2 45670  53.0543 206.6337 0001452  88.6016 271.5140 15.06397414192464
STARLINK-1454           
1 45671U 20035Q   23325.09960327  .00021365  00000+0  14482-2 0  9991
2 45671  53.0525 235.6885 0001672  77.4938 282.6238 15.06416801191774
STARLINK-1455           
1 45672U 20035R   23324.91068766  .00000446  00000+0  48832-4 0  9993
2 45672  53.0542 206.5356 0001603  88.1809 271.9363 15.06396614192572
STARLINK-1456           
1 45673U 20035S   23325.11433064  .00000876  00000+0  77687-4 0  9991
2 45673  53.0535 235.6224 0001458  83.5516 276.5639 15.06399320191780
STARLINK-1457           
1 45674U 20035T   23324.92266449 -.00000115  00000+0  11154-4 0  9995
2 45674  53.0547 236.4803 0001735 105.7940 254.3240 15.06400645192137
STARLINK-1458           
1 45675U 20035U   23325.11064992  .00000247  00000+0  35488-4 0  9998
2 45675  53.0542 235.6364 0001494  85.9490 274.1670 15.06397487191772
STARLINK-1460           
1 45676U 20035V   23325.14750464 -.00000042  00000+0  16080-4 0  9999
2 45676  53.0546 235.4694 0001661  91.8957 268.2222 15.06399701191780
STARLINK-1392           
1 45677U 20035W   23325.15856922  .00000804  00000+0  72853-4 0  9992
2 45677  53.0540 235.4216 0001684  93.9520 266.1661 15.06398546191789
STARLINK-1393           
1 45678U 20035X   23325.15211969  .00000577  00000+0  57665-4 0  9990
2 45678  53.0548 225.4520 0001386  98.4922 261.6224 15.06396178191920
STARLINK-1394           
1 45679U 20035Y   23325.15579508  .00002063  00000+0  15735-3 0  9990
2 45679  53.0543 225.4355 0001369  98.4576 261.6569 15.06402865191932
STARLINK-1395           
1 45680U 20035Z   23325.03047482 -.00002510  00000+0 -14969-3 0  9997
2 45680  53.0533 225.9990 0001544  87.2563 272.8603 15.06393404191908
STARLINK-1396           
1 45681U 20035AA  23325.10240413  .00021281  00000+0  11162-2 0  9990
2 45681  53.0481 220.8582 0002584 120.2192 239.9057 15.15722172191986
STARLINK-1397           
1 45682U 20035AB  23324.90147128 -.00002507  00000+0 -14946-3 0  9993
2 45682  53.0555 226.5785 0001677  89.5306 270.5875 15.06405476192281
STARLINK-1399           
1 45683U 20035AC  23325.01573363  .00000436  00000+0  48171-4 0  9996
2 45683  53.0543 226.0612 0001637  81.6801 278.4374 15.06401416191901
STARLINK-1401           
1 45684U 20035AD  23324.91835137  .00006964  00000+0  32829-3 0  9999
2 45684  53.0576 214.5646 0006341  86.7017 273.4703 15.20572888192471
STARLINK-1402           
1 45685U 20035AE  23325.12023417  .00001651  00000+0  12975-3 0  9992
2 45685  53.0545 220.0153 0001538  93.5303 266.5862 15.06395707192005
STARLINK-1404           
1 45686U 20035AF  23325.11526076  .00000749  00000+0  69206-4 0  9998
2 45686  53.0539 225.6180 0001636  83.9732 276.1444 15.06395885191928
STARLINK-1408           
1 45688U 20035AH  23325.07321718  .00006769  00000+0  27086-3 0  9998
2 45688  53.0819 190.3618 0004467 355.7556   4.3403 15.26233769192419
STARLINK-1413           
1 45689U 20035AJ  23324.93466037  .00007498  00000+0  52160-3 0  9998
2 45689  53.0543 226.4274 0001562  94.7959 265.3208 15.06410509192210
STARLINK-1414           
1 45690U 20035AK  23324.89413016  .00000810  00000+0  73293-4 0  9996
2 45690  53.0541 226.8279 0001604 102.8031 257.3138 15.06395467192238
STARLINK-1415           
1 45691U 20035AL  23325.11894445  .00000112  00000+0  26449-4 0  9998
2 45691  53.0544 225.5984 0001776  76.3251 283.7936 15.06395459192331
STARLINK-1416           
1 45692U 20035AM  23325.11157597  .00000470  00000+0  50439-4 0  9992
2 45692  53.0557 225.6314 0001544  81.1620 278.9543 15.06388945191927
STARLINK-1417           
1 45693U 20035AN  23324.93096582  .00003252  00000+0  23711-3 0  9991
2 45693  53.0533 226.4447 0001793  85.2935 274.8258 15.06396431192296
STARLINK-1420           
1 45695U 20035AQ  23325.06455511  .00001263  00000+0  10369-3 0  9994
2 45695  53.0531 205.8329 0001498  86.8428 273.2732 15.06395037192192
STARLINK-1422           
1 45696U 20035AR  23324.94202292  .00001443  00000+0  11579-3 0  9991
2 45696  53.0538 226.3940 0001527  92.3675 267.7489 15.06397468192294
STARLINK-1351           
1 45697U 20035AS  23325.11710117  .00000209  00000+0  32944-4 0  9991
2 45697  53.0535 205.6078 0001365  85.5260 274.5885 15.06405181192207
STARLINK-1370           
1 45698U 20035AT  23324.90605240  .00005056  00000+0  35803-3 0  9999
2 45698  53.0532 206.5469 0001507 102.1917 257.9240 15.06406944192581
STARLINK-1398           
1 45699U 20035AU  23324.89594292  .00000070  00000+0  23586-4 0  9999
2 45699  53.0535 206.6000 0001565  94.5823 265.5345 15.06398049192577
STARLINK-1400           
1 45700U 20035AV  23325.09130383  .00002150  00000+0  16322-3 0  9992
2 45700  53.0533 205.7228 0001482  93.3587 266.7571 15.06388734192194
STARLINK-1403           
1 45701U 20035AW  23325.05444246  .00000030  00000+0  20936-4 0  9997
2 45701  53.0536 205.8888 0001382  89.3819 270.7329 15.06391897192193
STARLINK-1405           
1 45702U 20035AX  23324.90331296 -.00000129  00000+0  10264-4 0  9994
2 45702  53.0539 206.5693 0001528  92.8123 267.3041 15.06397004192579
STARLINK-1407           
1 45703U 20035AY  23324.89963152  .00001369  00000+0  11083-3 0  9990
2 45703  53.0549 206.5840 0001491  93.3543 266.7616 15.06394464192574
STARLINK-1409           
1 45704U 20035AZ  23324.92540441  .00001169  00000+0  97397-4 0  9998
2 45704  53.0552 236.4703 0001607 102.8434 257.2735 15.06400400192163
STARLINK-1410           
1 45705U 20035BA  23324.91667824  .00065279  00000+0  45143-3 0  9996
2 45705  53.0491 228.5193 0000906 171.3174  87.5249 15.73934581191860
STARLINK-1411           
1 45706U 20035BB  23324.94386507  .00001158  00000+0  96604-4 0  9991
2 45706  53.0533 206.3850 0001481  88.1475 271.9684 15.06398201192570
STARLINK-1412           
1 45707U 20035BC  23325.07287220  .00008097  00000+0  56179-3 0  9990
2 45707  53.0531 205.8041 0001689  92.6592 267.4590 15.06404657192192
STARLINK-1418           
1 45708U 20035BD  23325.04706539  .00000840  00000+0  75253-4 0  9990
2 45708  53.0539 205.9230 0001560  89.1568 270.9600 15.06400471192195
STARLINK-1421           
1 45709U 20035BE  23324.95123529  .00005298  00000+0  37426-3 0  9993
2 45709  53.0527 206.3530 0001518  83.0905 277.0256 15.06404636192543
STARLINK-1423           
1 45710U 20035BF  23325.08024259  .00001573  00000+0  12447-3 0  9998
2 45710  53.0525 205.7727 0001675  91.1103 269.0078 15.06397110192190
STARLINK-1433           
1 45711U 20035BG  23325.06181130  .00001853  00000+0  14327-3 0  9999
2 45711  53.0529 205.8562 0001720  89.9923 270.1263 15.06398256192190
STARLINK-1434           
1 45712U 20035BH  23325.12448047  .00000341  00000+0  41806-4 0  9994
2 45712  53.0536 205.5741 0001557  92.6068 267.5099 15.06389987192204
STARLINK-1436 (VISORSAT)
1 45713U 20035BJ  23325.14474700  .00000148  00000+0  28854-4 0  9995
2 45713  53.0554 225.4810 0001923 102.8232 257.2972 15.06395715191927
STARLINK-1437           
1 45714U 20035BK  23324.93649385  .00000937  00000+0  81826-4 0  9999
2 45714  53.0531 206.4182 0001399  87.9129 272.2020 15.06392415192587
STARLINK-1461           
1 45730U 20038A   23324.54946299  .00001442  00000+0  11569-3 0  9999
2 45730  53.0558  48.1561 0001303  81.2693 278.8444 15.06402300189576
STARLINK-1465           
1 45731U 20038B   23324.56419356  .00004412  00000+0  31481-3 0  9996
2 45731  53.0557  48.0925 0001321  94.8836 265.2304 15.06413004189565
STARLINK-1466           
1 45732U 20038C   23324.55314206  .00001622  00000+0  12768-3 0  9991
2 45732  53.0570  48.1416 0001338  89.1965 270.9177 15.06416014190685
STARLINK-1467           
1 45733U 20038D   23324.55426123  .00009252  00000+0  37509-3 0  9991
2 45733  53.0721  14.7220 0006363 167.4813 192.6343 15.25337253190044
STARLINK-1468           
1 45734U 20038E   23324.89943796  .00007285  00000+0  33241-3 0  9992
2 45734  53.0504  22.4624 0003994  36.3959 323.7308 15.21637577189965
STARLINK-1471           
1 45735U 20038F   23324.57894418  .00009771  00000+0  67332-3 0  9994
2 45735  53.0546  48.0222 0001361  85.0180 275.0964 15.06435618189561
STARLINK-1472           
1 45736U 20038G   23324.91667824  .00228878  30144-4  76196-3 0  9998
2 45736  53.0404 208.5186 0006210 152.1337 337.9961 15.89841836193536
